STARLINK-1718           
1 46674U 20073E   25259.15775500  .00001559  00000+0  12351-3 0  9996
2 46674  53.0537 305.1280 0000922  88.8502 271.2592 15.06393390270821
STARLINK-1775           
1 46681U 20073M   25259.46045420  .00001670  00000+0  13094-3 0  9998
2 46681  53.0547 318.7658 0001242  89.0756 271.0375 15.06409636270658
STARLINK-1781           
1 46685U 20073R   25259.48997877  .00008278  00000+0  57387-3 0  9990
2 46685  53.0544 318.8999 0001100  95.0953 265.0162 15.06404164270655
STARLINK-1784           
1 46687U 20073T   25258.76889425  .00002996  00000+0  21990-3 0  9993
2 46687  53.0542 286.8694 0001136  83.2754 276.8364 15.06402847271042
STARLINK-1788           
1 46689U 20073V   25259.45315738  .00004356  00000+0  31103-3 0  9992
2 46689  53.0555 319.4531 0001256  95.0440 265.0692 15.06414293271892
STARLINK-1789           
1 46690U 20073W   25259.58337963  .01242189  00000+0  58029-1 0  9995
2 46690  53.0547 293.0343 0001299  83.5786 334.1984 15.16701677  5832
STARLINK-1790           
1 46691U 20073X   25259.38996865  .00000885  00000+0  78308-4 0  9995
2 46691  53.0550 304.0827 0001224  87.5719 272.5410 15.06398420270857
STARLINK-1795           
1 46696U 20073AC  25259.43603896  .00002327  00000+0  17508-3 0  9992
2 46696  53.0558 283.8748 0001180  71.5893 288.5224 15.06400816271149
STARLINK-1797           
1 46698U 20073AE  25259.41581867 -.00004588  00000+0 -28903-3 0  9999
2 46698  53.0498 304.5450 0001721  93.0242 267.0944 15.06435884270854
STARLINK-1799           
1 46699U 20073AF  25259.43050338  .00002594  00000+0  19294-3 0  9992
2 46699  53.0545 303.8984 0001230  81.7277 278.3851 15.06409062270861
STARLINK-1800           
1 46700U 20073AG  25259.43467252  .00001614  00000+0  12730-3 0  9992
2 46700  53.0549 318.8782 0001994  83.9327 276.1890 15.06390107270652
STARLINK-1801           
1 46701U 20073AH  25259.40100883 -.00000407  00000+0 -83882-5 0  9993
2 46701  53.0534 304.0300 0001436  82.4745 277.6407 15.06417006270860
STARLINK-1802           
1 46702U 20073AJ  25259.34757242  .00003892  00000+0  27998-3 0  9997
2 46702  53.0518 284.2690 0001260  88.0248 272.0885 15.06410590271130
STARLINK-1805           
1 46705U 20073AM  25259.43834202 -.00000056  00000+0  15122-4 0  9999
2 46705  53.0560 318.8621 0001131  85.6402 274.4716 15.06404940270657
STARLINK-1807           
1 46706U 20073AN  25259.41434460  .00029753  00000+0  18351-2 0  9999
2 46706  53.0533 303.2959 0004983 334.5444  25.5301 15.09706601270871
STARLINK-1810           
1 46709U 20073AR  25258.48369866 -.00000760  00000+0 -32099-4 0  9991
2 46709  53.0560 323.2764 0001419  95.5098 264.6052 15.06399689270500
