[{"OBJECT_NAME":"STARLINK-1718","OBJECT_ID":"2020-073E","EPOCH":"2025-09-16T03:47:10.032000","MEAN_MOTION":15.0639339,"ECCENTRICITY":9.222e-5,"INCLINATION":53.0537,"RA_OF_ASC_NODE":305.128,"ARG_OF_PERICENTER":88.8502,"MEAN_ANOMALY":271.2592,"EPHEMERIS_TYPE":0,"CLASSIFICATION_TYPE":"U","NORAD_CAT_ID":46674,"ELEMENT_SET_NO":999,"REV_AT_EPOCH":27082,"BSTAR":0.00012351107,"MEAN_MOTION_DOT":1.559e-5,"MEAN_MOTION_DDOT":0},{"OBJECT_NAME":"STARLINK-1775","OBJECT_ID":"2020-073M","EPOCH":"2025-09-16T11:03:03.242880","MEAN_MOTION":15.06409636,"ECCENTRICITY":0.00012429,"INCLINATION":53.0547,"RA_OF_ASC_NODE":318.7658,"ARG_OF_PERICENTER":89.0756,"MEAN_ANOMALY":271.0375,"EPHEMERIS_TYPE":0,"CLASSIFICATION_TYPE":"U","NORAD_CAT_ID":46681,"ELEMENT_SET_NO":999,"REV_AT_EPOCH":27065,"BSTAR":0.00013094046,"MEAN_MOTION_DOT":1.67e-5,"MEAN_MOTION_DDOT":0},{"OBJECT_NAME":"STARLINK-1781","OBJECT_ID":"2020-073R","EPOCH":"2025-09-16T11:45:34.165728","MEAN_MOTION":15.06404164,"ECCENTRICITY":0.00011008,"INCLINATION":53.0544,"RA_OF_ASC_NODE":318.8999,"ARG_OF_PERICENTER":95.0953,"MEAN_ANOMALY":265.0162,"EPHEMERIS_TYPE":0,"CLASSIFICATION_TYPE":"U","NORAD_CAT_ID":46685,"ELEMENT_SET_NO":999,"REV_AT_EPOCH":27065,"BSTAR":0.00057386928,"MEAN_MOTION_DOT":8.278e-5,"MEAN_MOTION_DDOT":0},{"OBJECT_NAME":"STARLINK-1784","OBJECT_ID":"2020-073T","EPOCH":"2025-09-15T18:27:12.463200","MEAN_MOTION":15.06402847,"ECCENTRICITY":0.00011367,"INCLINATION":53.0542,"RA_OF_ASC_NODE":286.8694,"ARG_OF_PERICENTER":83.2754,"MEAN_ANOMALY":276.8364,"EPHEMERIS_TYPE":0,"CLASSIFICATION_TYPE":"U","NORAD_CAT_ID":46687,"ELEMENT_SET_NO":999,"REV_AT_EPOCH":27104,"BSTAR":0.00021990318,"MEAN_MOTION_DOT":2.996e-5,"MEAN_MOTION_DDOT":0},{"OBJECT_NAME":"STARLINK-1788","OBJECT_ID":"2020-073V","EPOCH":"2025-09-16T10:52:32.797632","MEAN_MOTION":15.06414293,"ECCENTRICITY":0.00012567,"INCLINATION":53.0555,"RA_OF_ASC_NODE":319.4531,"ARG_OF_PERICENTER":95.044,"MEAN_ANOMALY":265.0692,"EPHEMERIS_TYPE":0,"CLASSIFICATION_TYPE":"U","NORAD_CAT_ID":46689,"ELEMENT_SET_NO":999,"REV_AT_EPOCH":27189,"BSTAR":0.00031102747,"MEAN_MOTION_DOT":4.356e-5,"MEAN_MOTION_DDOT":0},{"OBJECT_NAME":"STARLINK-1789","OBJECT_ID":"2020-073W","EPOCH":"2025-09-16T14:00:04.000032","MEAN_MOTION":15.16701677,"ECCENTRICITY":0.00012999,"INCLINATION":53.0547,"RA_OF_ASC_NODE":293.0343,"ARG_OF_PERICENTER":83.5786,"MEAN_ANOMALY":334.1984,"EPHEMERIS_TYPE":0,"CLASSIFICATION_TYPE":"U","NORAD_CAT_ID":46690,"ELEMENT_SET_NO":999,"REV_AT_EPOCH":583,"BSTAR":0.058029167,"MEAN_MOTION_DOT":0.01242189,"MEAN_MOTION_DDOT":0},{"OBJECT_NAME":"STARLINK-1790","OBJECT_ID":"2020-073X","EPOCH":"2025-09-16T09:21:33.291360","MEAN_MOTION":15.0639842,"ECCENTRICITY":0.00012245,"INCLINATION":53.055,"RA_OF_ASC_NODE":304.0827,"ARG_OF_PERICENTER":87.5719,"MEAN_ANOMALY":272.541,"EPHEMERIS_TYPE":0,"CLASSIFICATION_TYPE":"U","NORAD_CAT_ID":46691,"ELEMENT_SET_NO":999,"REV_AT_EPOCH":27085,"BSTAR":7.8307552e-5,"MEAN_MOTION_DOT":8.85e-6,"MEAN_MOTION_DDOT":0},{"OBJECT_NAME":"STARLINK-1795","OBJECT_ID":"2020-073AC","EPOCH":"2025-09-16T10:27:53.766144","MEAN_MOTION":15.06400816,"ECCENTRICITY":0.00011804,"INCLINATION":53.0558,"RA_OF_ASC_NODE":283.8748,"ARG_OF_PERICENTER":71.5893,"MEAN_ANOMALY":288.5224,"EPHEMERIS_TYPE":0,"CLASSIFICATION_TYPE":"U","NORAD_CAT_ID":46696,"ELEMENT_SET_NO":999,"REV_AT_EPOCH":27114,"BSTAR":0.00017508134,"MEAN_MOTION_DOT":2.327e-5,"MEAN_MOTION_DDOT":0},{"OBJECT_NAME":"STARLINK-1797","OBJECT_ID":"2020-073AE","EPOCH":"2025-09-16T09:58:46.733088","MEAN_MOTION":15.06435884,"ECCENTRICITY":0.00017213,"INCLINATION":53.0498,"RA_OF_ASC_NODE":304.545,"ARG_OF_PERICENTER":93.0242,"MEAN_ANOMALY":267.0944,"EPHEMERIS_TYPE":0,"CLASSIFICATION_TYPE":"U","NORAD_CAT_ID":46698,"ELEMENT_SET_NO":999,"REV_AT_EPOCH":27085,"BSTAR":-0.00028902786,"MEAN_MOTION_DOT":-4.588e-5,"MEAN_MOTION_DDOT":0},{"OBJECT_NAME":"STARLINK-1799","OBJECT_ID":"2020-073AF","EPOCH":"2025-09-16T10:19:55.492032","MEAN_MOTION":15.06409062,"ECCENTRICITY":0.000123,"INCLINATION":53.0545,"RA_OF_ASC_NODE":303.8984,"ARG_OF_PERICENTER":81.7277,"MEAN_ANOMALY":278.3851,"EPHEMERIS_TYPE":0,"CLASSIFICATION_TYPE":"U","NORAD_CAT_ID":46699,"ELEMENT_SET_NO":999,"REV_AT_EPOCH":27086,"BSTAR":0.00019293864,"MEAN_MOTION_DOT":2.594e-5,"MEAN_MOTION_DDOT":0},{"OBJECT_NAME":"STARLINK-1800","OBJECT_ID":"2020-073AG","EPOCH":"2025-09-16T10:25:55.705728","MEAN_MOTION":15.06390107,"ECCENTRICITY":0.00019942,"INCLINATION":53.0549,"RA_OF_ASC_NODE":318.8782,"ARG_OF_PERICENTER":83.9327,"MEAN_ANOMALY":276.189,"EPHEMERIS_TYPE":0,"CLASSIFICATION_TYPE":"U","NORAD_CAT_ID":46700,"ELEMENT_SET_NO":999,"REV_AT_EPOCH":27065,"BSTAR":0.00012730247,"MEAN_MOTION_DOT":1.614e-5,"MEAN_MOTION_DDOT":0},{"OBJECT_NAME":"STARLINK-1801","OBJECT_ID":"2020-073AH","EPOCH":"2025-09-16T09:37:27.162912","MEAN_MOTION":15.06417006,"ECCENTRICITY":0.0001436,"INCLINATION":53.0534,"RA_OF_ASC_NODE":304.03,"ARG_OF_PERICENTER":82.4745,"MEAN_ANOMALY":277.6407,"EPHEMERIS_TYPE":0,"CLASSIFICATION_TYPE":"U","NORAD_CAT_ID":46701,"ELEMENT_SET_NO":999,"REV_AT_EPOCH":27086,"BSTAR":-8.388231e-6,"MEAN_MOTION_DOT":-4.07e-6,"MEAN_MOTION_DDOT":0},{"OBJECT_NAME":"STARLINK-1802","OBJECT_ID":"2020-073AJ","EPOCH":"2025-09-16T08:20:30.257088","MEAN_MOTION":15.0641059,"ECCENTRICITY":0.00012601,"INCLINATION":53.0518,"RA_OF_ASC_NODE":284.269,"ARG_OF_PERICENTER":88.0248,"MEAN_ANOMALY":272.0885,"EPHEMERIS_TYPE":0,"CLASSIFICATION_TYPE":"U","NORAD_CAT_ID":46702,"ELEMENT_SET_NO":999,"REV_AT_EPOCH":27113,"BSTAR":0.00027997515,"MEAN_MOTION_DOT":3.892e-5,"MEAN_MOTION_DDOT":0},{"OBJECT_NAME":"STARLINK-1805","OBJECT_ID":"2020-073AM","EPOCH":"2025-09-16T10:31:12.750528","MEAN_MOTION":15.0640494,"ECCENTRICITY":0.00011318,"INCLINATION":53.056,"RA_OF_ASC_NODE":318.8621,"ARG_OF_PERICENTER":85.6402,"MEAN_ANOMALY":274.4716,"EPHEMERIS_TYPE":0,"CLASSIFICATION_TYPE":"U","NORAD_CAT_ID":46705,"ELEMENT_SET_NO":999,"REV_AT_EPOCH":27065,"BSTAR":1.5121619e-5,"MEAN_MOTION_DOT":-5.6e-7,"MEAN_MOTION_DDOT":0},{"OBJECT_NAME":"STARLINK-1807","OBJECT_ID":"2020-073AN","EPOCH":"2025-09-16T09:56:39.373440","MEAN_MOTION":15.09706601,"ECCENTRICITY":0.00049838,"INCLINATION":53.0533,"RA_OF_ASC_NODE":303.2959,"ARG_OF_PERICENTER":334.5444,"MEAN_ANOMALY":25.5301,"EPHEMERIS_TYPE":0,"CLASSIFICATION_TYPE":"U","NORAD_CAT_ID":46706,"ELEMENT_SET_NO":999,"REV_AT_EPOCH":27087,"BSTAR":0.0018351333,"MEAN_MOTION_DOT":0.00029753,"MEAN_MOTION_DDOT":0},{"OBJECT_NAME":"STARLINK-1810","OBJECT_ID":"2020-073AR","EPOCH":"2025-09-15T11:36:31.564224","MEAN_MOTION":15.06399689,"ECCENTRICITY":0.00014191,"INCLINATION":53.056,"RA_OF_ASC_NODE":323.2764,"ARG_OF_PERICENTER":95.5098,"MEAN_ANOMALY":264.6052,"EPHEMERIS_TYPE":0,"CLASSIFICATION_TYPE":"U","NORAD_CAT_ID":46709,"ELEMENT_SET_NO":999,"REV_AT_EPOCH":27050,"BSTAR":-3.2098821e-5,"MEAN_MOTION_DOT":-7.6e-6,"MEAN_MOTION_DDOT":0}]
